ONEWEB-0120             
1 47266U 20100J   25218.90315758 -.00000719  00000+0 -20336-2 0  9998
2 47266  87.8858  53.1562 0001695  86.5631 273.5692 13.12451929223506
ONEWEB-0121             
1 47267U 20100K   25218.89168379 -.00000039  00000+0 -14361-3 0  9999
2 47267  87.8852  53.1277 0001839  85.4537 274.6801 13.12444339223418
ONEWEB-0122             
1 47268U 20100L   25218.81042301 -.00000223  00000+0 -65471-3 0  9991
2 47268  87.8846  53.1474 0001725  82.1741 277.9584 13.12444826223310
ONEWEB-0123             
1 47269U 20100M   25218.57700825 -.00002708  00000+0 -75656-2 0  9992
2 47269  87.8835  53.2219 0002292  95.7605 264.3785 13.12425712223424
ONEWEB-0124             
1 47270U 20100N   25218.87057923 -.00000330  00000+0 -95141-3 0  9992
2 47270  87.8860  53.1627 0001936  88.9880 271.1470 13.12441827223342
ONEWEB-0125             
1 47271U 20100P   25218.92411179  .00000353  00000+0  94634-3 0  9995
2 47271  87.8857  53.1156 0001852  95.9270 264.2069 13.12442688223415
ONEWEB-0126             
1 47272U 20100Q   25218.56415052 -.00000323  00000+0 -93307-3 0  9995
2 47272  87.8864  53.2057 0001648  86.6937 273.4380 13.12442972223431
ONEWEB-0127             
1 47273U 20100R   25218.52994605  .00000525  00000+0  14246-2 0  9994
2 47273  87.8860  53.2277 0001651  83.3056 276.8260 13.12444312223458
